ONEWEB-0190             
1 48796U 21045AF  26097.19690655 -.00000079  00000+0 -24387-3 0  9995
2 48796  87.8928 273.3647 0002476  92.7095 267.4319 13.15547102235035
ONEWEB-0236             
1 48797U 21045AG  26096.98616335 -.00000320  00000+0 -88400-3 0  9990
2 48797  87.8926 273.4175 0001610  92.2422 267.8893 13.15547818234897
ONEWEB-0248             
1 48798U 21045AH  26097.22703066  .00000032  00000+0  51683-4 0  9999
2 48798  87.8937 273.3456 0002127  85.4344 274.7029 13.15548100235087
ONEWEB-0225             
1 48799U 21045AJ  26097.02102776 -.00000113  00000+0 -33385-3 0  9999
2 48799  87.8929 273.4005 0002315  91.8712 268.2683 13.15548134235068
ONEWEB-0215             
1 48800U 21045AK  26097.21909517 -.00000254  00000+0 -70835-3 0  9998
2 48800  87.8938 273.3366 0002441  88.7648 271.3762 13.15548305234964
ONEWEB-0216             
1 48801U 21045AL  26097.22860554 -.00000013  00000+0 -69162-4 0  9992
2 48801  87.8935 273.3520 0001712  97.1203 263.0122 13.15547614234976
ONEWEB-0239             
1 48802U 21045AM  26097.00518643  .00000153  00000+0  37132-3 0  9992
2 48802  87.8925 273.4094 0002449  82.2760 277.8649 13.15547503234989
ONEWEB-0249             
1 48967U 21060A   26097.14773000  .00000084  00000+0  18579-3 0  9993
2 48967  87.9050 242.8939 0001781  96.8021 263.3313 13.16593402230263
ONEWEB-0250             
1 48968U 21060B   26097.14131066  .00000042  00000+0  65427-4 0  9993
2 48968  87.9051 240.8819 0001667  66.1580 293.9731 13.25829799230807
ONEWEB-0252             
1 48970U 21060D   26097.10260649 -.00000043  00000+0 -14688-3 0  9997
2 48970  87.9047 242.8950 0001896 106.7438 253.3901 13.16594897230302
ONEWEB-0253             
1 48971U 21060E   26097.09151428  .00000056  00000+0  11345-3 0  9999
2 48971  87.9049 242.9034 0001834  97.0680 263.0660 13.16592328230231
ONEWEB-0254             
1 48972U 21060F   26097.10102772 -.00000029  00000+0 -10858-3 0  9990
2 48972  87.9051 242.8970 0002000  92.4805 267.6555 13.16594710230237
ONEWEB-0255             
1 48973U 21060G   26096.91104070  .00000106  00000+0  24365-3 0  9994
2 48973  87.9046 242.9431 0001932  96.6036 263.5315 13.16593784230284
ONEWEB-0256             
1 48974U 21060H   26096.93715529  .00000836  00000+0  21534-2 0  9998
2 48974  87.9048 242.9457 0001754 104.3218 255.8108 13.16596032230256
ONEWEB-0257             
1 48975U 21060J   26097.12160537 -.00000151  00000+0 -42917-3 0  9995
2 48975  87.9049 242.8922 0001929 100.5470 259.5879 13.16594296230230
ONEWEB-0258             
1 48976U 21060K   26097.12318030  .00000009  00000+0 -10232-4 0  9996
2 48976  87.9048 242.9032 0001782  97.4392 262.6942 13.16593351230245
