[{"OBJECT_NAME":"ONEWEB-0190","OBJECT_ID":"2021-045AF","EPOCH":"2026-04-07T04:43:32.725920","MEAN_MOTION":13.15547102,"ECCENTRICITY":0.0002476,"INCLINATION":87.8928,"RA_OF_ASC_NODE":273.3647,"ARG_OF_PERICENTER":92.7095,"MEAN_ANOMALY":267.4319,"EPHEMERIS_TYPE":0,"CLASSIFICATION_TYPE":"U","NORAD_CAT_ID":48796,"ELEMENT_SET_NO":999,"REV_AT_EPOCH":23503,"BSTAR":-0.00024387,"MEAN_MOTION_DOT":-7.9e-07,"MEAN_MOTION_DDOT":0.0},{"OBJECT_NAME":"ONEWEB-0236","OBJECT_ID":"2021-045AG","EPOCH":"2026-04-06T23:40:04.513440","MEAN_MOTION":13.15547818,"ECCENTRICITY":0.000161,"INCLINATION":87.8926,"RA_OF_ASC_NODE":273.4175,"ARG_OF_PERICENTER":92.2422,"MEAN_ANOMALY":267.8893,"EPHEMERIS_TYPE":0,"CLASSIFICATION_TYPE":"U","NORAD_CAT_ID":48797,"ELEMENT_SET_NO":999,"REV_AT_EPOCH":23489,"BSTAR":-0.000884,"MEAN_MOTION_DOT":-3.2e-06,"MEAN_MOTION_DDOT":0.0},{"OBJECT_NAME":"ONEWEB-0248","OBJECT_ID":"2021-045AH","EPOCH":"2026-04-07T05:26:55.449024","MEAN_MOTION":13.155481,"ECCENTRICITY":0.0002127,"INCLINATION":87.8937,"RA_OF_ASC_NODE":273.3456,"ARG_OF_PERICENTER":85.4344,"MEAN_ANOMALY":274.7029,"EPHEMERIS_TYPE":0,"CLASSIFICATION_TYPE":"U","NORAD_CAT_ID":48798,"ELEMENT_SET_NO":999,"REV_AT_EPOCH":23508,"BSTAR":5.1683000000000006e-05,"MEAN_MOTION_DOT":3.2e-07,"MEAN_MOTION_DDOT":0.0},{"OBJECT_NAME":"ONEWEB-0225","OBJECT_ID":"2021-045AJ","EPOCH":"2026-04-07T00:30:16.798464","MEAN_MOTION":13.15548134,"ECCENTRICITY":0.0002315,"INCLINATION":87.8929,"RA_OF_ASC_NODE":273.4005,"ARG_OF_PERICENTER":91.8712,"MEAN_ANOMALY":268.2683,"EPHEMERIS_TYPE":0,"CLASSIFICATION_TYPE":"U","NORAD_CAT_ID":48799,"ELEMENT_SET_NO":999,"REV_AT_EPOCH":23506,"BSTAR":-0.00033385,"MEAN_MOTION_DOT":-1.13e-06,"MEAN_MOTION_DDOT":0.0},{"OBJECT_NAME":"ONEWEB-0215","OBJECT_ID":"2021-045AK","EPOCH":"2026-04-07T05:15:29.822688","MEAN_MOTION":13.15548305,"ECCENTRICITY":0.0002441,"INCLINATION":87.8938,"RA_OF_ASC_NODE":273.3366,"ARG_OF_PERICENTER":88.7648,"MEAN_ANOMALY":271.3762,"EPHEMERIS_TYPE":0,"CLASSIFICATION_TYPE":"U","NORAD_CAT_ID":48800,"ELEMENT_SET_NO":999,"REV_AT_EPOCH":23496,"BSTAR":-0.0007083500000000001,"MEAN_MOTION_DOT":-2.54e-06,"MEAN_MOTION_DDOT":0.0},{"OBJECT_NAME":"ONEWEB-0216","OBJECT_ID":"2021-045AL","EPOCH":"2026-04-07T05:29:11.518656","MEAN_MOTION":13.15547614,"ECCENTRICITY":0.0001712,"INCLINATION":87.8935,"RA_OF_ASC_NODE":273.352,"ARG_OF_PERICENTER":97.1203,"MEAN_ANOMALY":263.0122,"EPHEMERIS_TYPE":0,"CLASSIFICATION_TYPE":"U","NORAD_CAT_ID":48801,"ELEMENT_SET_NO":999,"REV_AT_EPOCH":23497,"BSTAR":-6.9162e-05,"MEAN_MOTION_DOT":-1.3e-07,"MEAN_MOTION_DDOT":0.0},{"OBJECT_NAME":"ONEWEB-0239","OBJECT_ID":"2021-045AM","EPOCH":"2026-04-07T00:07:28.107552","MEAN_MOTION":13.15547503,"ECCENTRICITY":0.0002449,"INCLINATION":87.8925,"RA_OF_ASC_NODE":273.4094,"ARG_OF_PERICENTER":82.276,"MEAN_ANOMALY":277.8649,"EPHEMERIS_TYPE":0,"CLASSIFICATION_TYPE":"U","NORAD_CAT_ID":48802,"ELEMENT_SET_NO":999,"REV_AT_EPOCH":23498,"BSTAR":0.00037132,"MEAN_MOTION_DOT":1.53e-06,"MEAN_MOTION_DDOT":0.0},{"OBJECT_NAME":"ONEWEB-0249","OBJECT_ID":"2021-060A","EPOCH":"2026-04-07T03:32:43.872000","MEAN_MOTION":13.16593402,"ECCENTRICITY":0.0001781,"INCLINATION":87.905,"RA_OF_ASC_NODE":242.8939,"ARG_OF_PERICENTER":96.8021,"MEAN_ANOMALY":263.3313,"EPHEMERIS_TYPE":0,"CLASSIFICATION_TYPE":"U","NORAD_CAT_ID":48967,"ELEMENT_SET_NO":999,"REV_AT_EPOCH":23026,"BSTAR":0.00018579000000000002,"MEAN_MOTION_DOT":8.4e-07,"MEAN_MOTION_DDOT":0.0},{"OBJECT_NAME":"ONEWEB-0250","OBJECT_ID":"2021-060B","EPOCH":"2026-04-07T03:23:29.241024","MEAN_MOTION":13.25829799,"ECCENTRICITY":0.0001667,"INCLINATION":87.9051,"RA_OF_ASC_NODE":240.8819,"ARG_OF_PERICENTER":66.158,"MEAN_ANOMALY":293.9731,"EPHEMERIS_TYPE":0,"CLASSIFICATION_TYPE":"U","NORAD_CAT_ID":48968,"ELEMENT_SET_NO":999,"REV_AT_EPOCH":23080,"BSTAR":6.542700000000001e-05,"MEAN_MOTION_DOT":4.2e-07,"MEAN_MOTION_DDOT":0.0},{"OBJECT_NAME":"ONEWEB-0252","OBJECT_ID":"2021-060D","EPOCH":"2026-04-07T02:27:45.200736","MEAN_MOTION":13.16594897,"ECCENTRICITY":0.0001896,"INCLINATION":87.9047,"RA_OF_ASC_NODE":242.895,"ARG_OF_PERICENTER":106.7438,"MEAN_ANOMALY":253.3901,"EPHEMERIS_TYPE":0,"CLASSIFICATION_TYPE":"U","NORAD_CAT_ID":48970,"ELEMENT_SET_NO":999,"REV_AT_EPOCH":23030,"BSTAR":-0.00014688,"MEAN_MOTION_DOT":-4.3e-07,"MEAN_MOTION_DDOT":0.0},{"OBJECT_NAME":"ONEWEB-0253","OBJECT_ID":"2021-060E","EPOCH":"2026-04-07T02:11:46.833792","MEAN_MOTION":13.16592328,"ECCENTRICITY":0.0001834,"INCLINATION":87.9049,"RA_OF_ASC_NODE":242.9034,"ARG_OF_PERICENTER":97.068,"MEAN_ANOMALY":263.066,"EPHEMERIS_TYPE":0,"CLASSIFICATION_TYPE":"U","NORAD_CAT_ID":48971,"ELEMENT_SET_NO":999,"REV_AT_EPOCH":23023,"BSTAR":0.00011344999999999999,"MEAN_MOTION_DOT":5.6e-07,"MEAN_MOTION_DDOT":0.0},{"OBJECT_NAME":"ONEWEB-0254","OBJECT_ID":"2021-060F","EPOCH":"2026-04-07T02:25:28.795008","MEAN_MOTION":13.1659471,"ECCENTRICITY":0.0002,"INCLINATION":87.9051,"RA_OF_ASC_NODE":242.897,"ARG_OF_PERICENTER":92.4805,"MEAN_ANOMALY":267.6555,"EPHEMERIS_TYPE":0,"CLASSIFICATION_TYPE":"U","NORAD_CAT_ID":48972,"ELEMENT_SET_NO":999,"REV_AT_EPOCH":23023,"BSTAR":-0.00010858,"MEAN_MOTION_DOT":-2.9e-07,"MEAN_MOTION_DDOT":0.0},{"OBJECT_NAME":"ONEWEB-0255","OBJECT_ID":"2021-060G","EPOCH":"2026-04-06T21:51:53.916480","MEAN_MOTION":13.16593784,"ECCENTRICITY":0.0001932,"INCLINATION":87.9046,"RA_OF_ASC_NODE":242.9431,"ARG_OF_PERICENTER":96.6036,"MEAN_ANOMALY":263.5315,"EPHEMERIS_TYPE":0,"CLASSIFICATION_TYPE":"U","NORAD_CAT_ID":48973,"ELEMENT_SET_NO":999,"REV_AT_EPOCH":23028,"BSTAR":0.00024365,"MEAN_MOTION_DOT":1.06e-06,"MEAN_MOTION_DDOT":0.0},{"OBJECT_NAME":"ONEWEB-0256","OBJECT_ID":"2021-060H","EPOCH":"2026-04-06T22:29:30.217056","MEAN_MOTION":13.16596032,"ECCENTRICITY":0.0001754,"INCLINATION":87.9048,"RA_OF_ASC_NODE":242.9457,"ARG_OF_PERICENTER":104.3218,"MEAN_ANOMALY":255.8108,"EPHEMERIS_TYPE":0,"CLASSIFICATION_TYPE":"U","NORAD_CAT_ID":48974,"ELEMENT_SET_NO":999,"REV_AT_EPOCH":23025,"BSTAR":0.0021534,"MEAN_MOTION_DOT":8.36e-06,"MEAN_MOTION_DDOT":0.0},{"OBJECT_NAME":"ONEWEB-0257","OBJECT_ID":"2021-060J","EPOCH":"2026-04-07T02:55:06.703968","MEAN_MOTION":13.16594296,"ECCENTRICITY":0.0001929,"INCLINATION":87.9049,"RA_OF_ASC_NODE":242.8922,"ARG_OF_PERICENTER":100.547,"MEAN_ANOMALY":259.5879,"EPHEMERIS_TYPE":0,"CLASSIFICATION_TYPE":"U","NORAD_CAT_ID":48975,"ELEMENT_SET_NO":999,"REV_AT_EPOCH":23023,"BSTAR":-0.00042917,"MEAN_MOTION_DOT":-1.51e-06,"MEAN_MOTION_DDOT":0.0},{"OBJECT_NAME":"ONEWEB-0258","OBJECT_ID":"2021-060K","EPOCH":"2026-04-07T02:57:22.777920","MEAN_MOTION":13.16593351,"ECCENTRICITY":0.0001782,"INCLINATION":87.9048,"RA_OF_ASC_NODE":242.9032,"ARG_OF_PERICENTER":97.4392,"MEAN_ANOMALY":262.6942,"EPHEMERIS_TYPE":0,"CLASSIFICATION_TYPE":"U","NORAD_CAT_ID":48976,"ELEMENT_SET_NO":999,"REV_AT_EPOCH":23024,"BSTAR":-1.0232e-05,"MEAN_MOTION_DOT":9e-08,"MEAN_MOTION_DDOT":0.0}]